{"type": "FeatureCollection", "name": "ne_10m_ports", "crs": {"type": "name", "properties": {"name": "urn:ogc:def:crs:OGC:1.3:CRS84"}}, "features": [{"type": "Feature", "properties": {"scalerank": 8, "featurecla": "Port", "name": "Mina Sulman Port", "website": "www.bahrainports.gov.bh", "natlscale": 5, "ne_id": 1730087277}, "bbox": [50.607597, 26.198611, 50.607597, 26.198611], "geometry": {"type": "Point", "coordinates": [50.607597, 26.198611]}}, {"type": "Feature", "properties": {"scalerank": 8, "featurecla": "Port", "name": "Sitrah", "website": "www.bahrainports.gov.bh", "natlscale": 5, "ne_id": 1730087279}, "bbox": [50.658834, 26.158611, 50.658834, 26.158611], "geometry": {"type": "Point", "coordinates": [50.658834, 26.158611]}}, {"type": "Feature", "properties": {"scalerank": 8, "featurecla": "Port", "name": "Damietta", "website": "www.dam-port.com", "natlscale": 5, "ne_id": 1730087411}, "bbox": [31.759187, 31.466667, 31.759187, 31.466667], "geometry": {"type": "Point", "coordinates": [31.759187, 31.466667]}}, {"type": "Feature", "properties": {"scalerank": 8, "featurecla": "Port", "name": "Safaga", "website": "www.mts.gov.eg", "natlscale": 5, "ne_id": 1730087413}, "bbox": [33.941284, 26.742222, 33.941284, 26.742222], "geometry": {"type": "Point", "coordinates": [33.941284, 26.742222]}}, {"type": "Feature", "properties": {"scalerank": 8, "featurecla": "Port", "name": "Alleppey", "website": null, "natlscale": 5, "ne_id": 1730087493}, "bbox": [76.310424, 9.491944, 76.310424, 9.491944], "geometry": {"type": "Point", "coordinates": [76.310424, 9.491944]}}, {"type": "Feature", "properties": {"scalerank": 8, "featurecla": "Port", "name": "Kakinada", "website": "www.kakinadaseaports.in", "natlscale": 5, "ne_id": 1730087495}, "bbox": [82.274617, 16.977778, 82.274617, 16.977778], "geometry": {"type": "Point", "coordinates": [82.274617, 16.977778]}}, {"type": "Feature", "properties": {"scalerank": 8, "featurecla": "Port", "name": "Tuticorin", "website": "tuticorinport.gov.in", "natlscale": 5, "ne_id": 1730087497}, "bbox": [78.187044, 8.758333, 78.187044, 8.758333], "geometry": {"type": "Point", "coordinates": [78.187044, 8.758333]}}, {"type": "Feature", "properties": {"scalerank": 8, "featurecla": "Port", "name": "Galle", "website": "www.slpa.lk", "natlscale": 5, "ne_id": 1730087593}, "bbox": [80.224971, 6.033333, 80.224971, 6.033333], "geometry": {"type": "Point", "coordinates": [80.224971, 6.033333]}}, {"type": "Feature", "properties": {"scalerank": 8, "featurecla": "Port", "name": "Qalhat", "website": null, "natlscale": 5, "ne_id": 1730087641}, "bbox": [59.420554, 22.656667, 59.420554, 22.656667], "geometry": {"type": "Point", "coordinates": [59.420554, 22.656667]}}, {"type": "Feature", "properties": {"scalerank": 8, "featurecla": "Port", "name": "Sohar", "website": "portofsohar.com", "natlscale": 5, "ne_id": 1730087643}, "bbox": [56.737927, 24.378333, 56.737927, 24.378333], "geometry": {"type": "Point", "coordinates": [56.737927, 24.378333]}}, {"type": "Feature", "properties": {"scalerank": 8, "featurecla": "Port", "name": "Jubail", "website": "www.ports.gov.sa", "natlscale": 5, "ne_id": 1730087689}, "bbox": [49.670907, 27.028611, 49.670907, 27.028611], "geometry": {"type": "Point", "coordinates": [49.670907, 27.028611]}}, {"type": "Feature", "properties": {"scalerank": 8, "featurecla": "Port", "name": "Jubail", "website": "www.ports.gov.sa", "natlscale": 5, "ne_id": 1730087691}, "bbox": [49.673027, 27.087778, 49.673027, 27.087778], "geometry": {"type": "Point", "coordinates": [49.673027, 27.087778]}}, {"type": "Feature", "properties": {"scalerank": 8, "featurecla": "Port", "name": "Ras al Khafji", "website": null, "natlscale": 5, "ne_id": 1730087693}, "bbox": [48.522497, 28.415, 48.522497, 28.415], "geometry": {"type": "Point", "coordinates": [48.522497, 28.415]}}, {"type": "Feature", "properties": {"scalerank": 7, "featurecla": "Port", "name": "Al Fujayrah", "website": "www.fujairahport.ae", "natlscale": 10, "ne_id": 1730087849}, "bbox": [56.356537, 25.178333, 56.356537, 25.178333], "geometry": {"type": "Point", "coordinates": [56.356537, 25.178333]}}, {"type": "Feature", "properties": {"scalerank": 7, "featurecla": "Port", "name": "Mongla", "website": "www.monglaport.com.bd", "natlscale": 10, "ne_id": 1730087897}, "bbox": [89.585984, 22.486944, 89.585984, 22.486944], "geometry": {"type": "Point", "coordinates": [89.585984, 22.486944]}}, {"type": "Feature", "properties": {"scalerank": 7, "featurecla": "Port", "name": "Lhokseumawe", "website": "www.inaport1.co.id", "natlscale": 10, "ne_id": 1730088077}, "bbox": [97.142874, 5.166667, 97.142874, 5.166667], "geometry": {"type": "Point", "coordinates": [97.142874, 5.166667]}}, {"type": "Feature", "properties": {"scalerank": 7, "featurecla": "Port", "name": "Mangalore", "website": "www.newmangalore-port.com", "natlscale": 10, "ne_id": 1730088087}, "bbox": [74.80742, 12.926944, 74.80742, 12.926944], "geometry": {"type": "Point", "coordinates": [74.80742, 12.926944]}}, {"type": "Feature", "properties": {"scalerank": 7, "featurecla": "Port", "name": "Porbandar", "website": "www.gmbports.org", "natlscale": 10, "ne_id": 1730088089}, "bbox": [69.587397, 21.639444, 69.587397, 21.639444], "geometry": {"type": "Point", "coordinates": [69.587397, 21.639444]}}, {"type": "Feature", "properties": {"scalerank": 7, "featurecla": "Port", "name": "Ratnagiri", "website": null, "natlscale": 10, "ne_id": 1730088091}, "bbox": [73.27179, 17.001944, 73.27179, 17.001944], "geometry": {"type": "Point", "coordinates": [73.27179, 17.001944]}}, {"type": "Feature", "properties": {"scalerank": 7, "featurecla": "Port", "name": "Khorramshahr", "website": "www.khport.ir", "natlscale": 10, "ne_id": 1730088097}, "bbox": [48.185453, 30.4325, 48.185453, 30.4325], "geometry": {"type": "Point", "coordinates": [48.185453, 30.4325]}}, {"type": "Feature", "properties": {"scalerank": 7, "featurecla": "Port", "name": "Lamu", "website": "www.kpa.co.ke", "natlscale": 10, "ne_id": 1730088143}, "bbox": [40.90159, -2.268056, 40.90159, -2.268056], "geometry": {"type": "Point", "coordinates": [40.90159, -2.268056]}}, {"type": "Feature", "properties": {"scalerank": 7, "featurecla": "Port", "name": "Tripoli", "website": "www.tripoliport.com", "natlscale": 10, "ne_id": 1730088157}, "bbox": [35.81914, 34.455278, 35.81914, 34.455278], "geometry": {"type": "Point", "coordinates": [35.81914, 34.455278]}}, {"type": "Feature", "properties": {"scalerank": 7, "featurecla": "Port", "name": "Bassein", "website": "www.mot.gov.mm/mpa/index.html", "natlscale": 10, "ne_id": 1730088199}, "bbox": [94.72338, 16.779722, 94.72338, 16.779722], "geometry": {"type": "Point", "coordinates": [94.72338, 16.779722]}}, {"type": "Feature", "properties": {"scalerank": 7, "featurecla": "Port", "name": "Salalah", "website": "www.salalahport.com", "natlscale": 10, "ne_id": 1730088251}, "bbox": [54.00318, 16.941667, 54.00318, 16.941667], "geometry": {"type": "Point", "coordinates": [54.00318, 16.941667]}}, {"type": "Feature", "properties": {"scalerank": 7, "featurecla": "Port", "name": "Gwadar", "website": null, "natlscale": 10, "ne_id": 1730088253}, "bbox": [62.338634, 25.112222, 62.338634, 25.112222], "geometry": {"type": "Point", "coordinates": [62.338634, 25.112222]}}, {"type": "Feature", "properties": {"scalerank": 7, "featurecla": "Port", "name": "Kismayu", "website": null, "natlscale": 10, "ne_id": 1730088319}, "bbox": [42.541107, -0.374167, 42.541107, -0.374167], "geometry": {"type": "Point", "coordinates": [42.541107, -0.374167]}}, {"type": "Feature", "properties": {"scalerank": 7, "featurecla": "Port", "name": "Alexandria", "website": null, "natlscale": 10, "ne_id": 1730088375}, "bbox": [30.167657, 31.334923, 30.167657, 31.334923], "geometry": {"type": "Point", "coordinates": [30.167657, 31.334923]}}, {"type": "Feature", "properties": {"scalerank": 7, "featurecla": "Port", "name": "Tel Aviv Yafo", "website": null, "natlscale": 10, "ne_id": 1730088433}, "bbox": [34.76, 32.06, 34.76, 32.06], "geometry": {"type": "Point", "coordinates": [34.76, 32.06]}}, {"type": "Feature", "properties": {"scalerank": 7, "featurecla": "Port", "name": "Assab", "website": null, "natlscale": 10, "ne_id": 1730088449}, "bbox": [42.75, 13, 42.75, 13], "geometry": {"type": "Point", "coordinates": [42.75, 13]}}, {"type": "Feature", "properties": {"scalerank": 7, "featurecla": "Port", "name": "Massawa", "website": null, "natlscale": 10, "ne_id": 1730088451}, "bbox": [39.46, 15.61, 39.46, 15.61], "geometry": {"type": "Point", "coordinates": [39.46, 15.61]}}, {"type": "Feature", "properties": {"scalerank": 7, "featurecla": "Port", "name": "Elat", "website": null, "natlscale": 10, "ne_id": 1730088453}, "bbox": [34.95, 29.55, 34.95, 29.55], "geometry": {"type": "Point", "coordinates": [34.95, 29.55]}}, {"type": "Feature", "properties": {"scalerank": 7, "featurecla": "Port", "name": "Al Kuwayt", "website": null, "natlscale": 10, "ne_id": 1730088455}, "bbox": [47.96, 29.38, 47.96, 29.38], "geometry": {"type": "Point", "coordinates": [47.96, 29.38]}}, {"type": "Feature", "properties": {"scalerank": 7, "featurecla": "Port", "name": "Bombay", "website": null, "natlscale": 10, "ne_id": 1730088457}, "bbox": [72.83, 18.83, 72.83, 18.83], "geometry": {"type": "Point", "coordinates": [72.83, 18.83]}}, {"type": "Feature", "properties": {"scalerank": 7, "featurecla": "Port", "name": "Jawaharlal Nehru Port", "website": null, "natlscale": 10, "ne_id": 1730088461}, "bbox": [72.93, 18.95, 72.93, 18.95], "geometry": {"type": "Point", "coordinates": [72.93, 18.95]}}, {"type": "Feature", "properties": {"scalerank": 7, "featurecla": "Port", "name": "Cochin", "website": null, "natlscale": 10, "ne_id": 1730088463}, "bbox": [76.23, 9.96, 76.23, 9.96], "geometry": {"type": "Point", "coordinates": [76.23, 9.96]}}, {"type": "Feature", "properties": {"scalerank": 7, "featurecla": "Port", "name": "Madras", "website": null, "natlscale": 10, "ne_id": 1730088465}, "bbox": [80.3, 13.1, 80.3, 13.1], "geometry": {"type": "Point", "coordinates": [80.3, 13.1]}}, {"type": "Feature", "properties": {"scalerank": 7, "featurecla": "Port", "name": "Calcutta", "website": null, "natlscale": 10, "ne_id": 1730088467}, "bbox": [88.31, 22.55, 88.31, 22.55], "geometry": {"type": "Point", "coordinates": [88.31, 22.55]}}, {"type": "Feature", "properties": {"scalerank": 7, "featurecla": "Port", "name": "Phuket", "website": null, "natlscale": 10, "ne_id": 1730088469}, "bbox": [98.4, 7.83, 98.4, 7.83], "geometry": {"type": "Point", "coordinates": [98.4, 7.83]}}, {"type": "Feature", "properties": {"scalerank": 7, "featurecla": "Port", "name": "Belawan", "website": null, "natlscale": 10, "ne_id": 1730088473}, "bbox": [98.68, 3.78, 98.68, 3.78], "geometry": {"type": "Point", "coordinates": [98.68, 3.78]}}, {"type": "Feature", "properties": {"scalerank": 6, "featurecla": "Port", "name": "Port Blair", "website": null, "natlscale": 20, "ne_id": 1730088743}, "bbox": [92.72391, 11.672222, 92.72391, 11.672222], "geometry": {"type": "Point", "coordinates": [92.72391, 11.672222]}}, {"type": "Feature", "properties": {"scalerank": 6, "featurecla": "Port", "name": "Kandla", "website": "www.kandlaport.com", "natlscale": 20, "ne_id": 1730088745}, "bbox": [70.22232, 23.013611, 70.22232, 23.013611], "geometry": {"type": "Point", "coordinates": [70.22232, 23.013611]}}, {"type": "Feature", "properties": {"scalerank": 6, "featurecla": "Port", "name": "Pondicherry", "website": "port.pon.nic.in", "natlscale": 20, "ne_id": 1730088749}, "bbox": [79.82232, 11.914167, 79.82232, 11.914167], "geometry": {"type": "Point", "coordinates": [79.82232, 11.914167]}}, {"type": "Feature", "properties": {"scalerank": 6, "featurecla": "Port", "name": "Bushehr", "website": "www.pso.ir", "natlscale": 20, "ne_id": 1730088755}, "bbox": [50.836867, 28.984722, 50.836867, 28.984722], "geometry": {"type": "Point", "coordinates": [50.836867, 28.984722]}}, {"type": "Feature", "properties": {"scalerank": 6, "featurecla": "Port", "name": "Malindi", "website": "www.kpa.co.ke", "natlscale": 20, "ne_id": 1730088797}, "bbox": [40.123027, -3.213611, 40.123027, -3.213611], "geometry": {"type": "Point", "coordinates": [40.123027, -3.213611]}}, {"type": "Feature", "properties": {"scalerank": 6, "featurecla": "Port", "name": "Trincomalee", "website": "www.slpa.lk", "natlscale": 20, "ne_id": 1730088799}, "bbox": [81.203887, 8.558333, 81.203887, 8.558333], "geometry": {"type": "Point", "coordinates": [81.203887, 8.558333]}}, {"type": "Feature", "properties": {"scalerank": 6, "featurecla": "Port", "name": "Jizan", "website": "www.ports.gov.sa", "natlscale": 20, "ne_id": 1730088907}, "bbox": [42.535277, 16.890278, 42.535277, 16.890278], "geometry": {"type": "Point", "coordinates": [42.535277, 16.890278]}}, {"type": "Feature", "properties": {"scalerank": 6, "featurecla": "Port", "name": "Berbera", "website": null, "natlscale": 20, "ne_id": 1730088911}, "bbox": [45, 10.440833, 45, 10.440833], "geometry": {"type": "Point", "coordinates": [45, 10.440833]}}, {"type": "Feature", "properties": {"scalerank": 6, "featurecla": "Port", "name": "Mukalla", "website": "www.portofaden.com", "natlscale": 20, "ne_id": 1730088997}, "bbox": [49.143757, 14.522222, 49.143757, 14.522222], "geometry": {"type": "Point", "coordinates": [49.143757, 14.522222]}}, {"type": "Feature", "properties": {"scalerank": 5, "featurecla": "Port", "name": "Abu Dhabi", "website": "www.portzayed.gov.ae", "natlscale": 30, "ne_id": 1730089023}, "bbox": [54.372674, 24.525, 54.372674, 24.525], "geometry": {"type": "Point", "coordinates": [54.372674, 24.525]}}, {"type": "Feature", "properties": {"scalerank": 5, "featurecla": "Port", "name": "Larnaca", "website": "www.cpa.gov.cy", "natlscale": 30, "ne_id": 1730089103}, "bbox": [33.63934, 34.924167, 33.63934, 34.924167], "geometry": {"type": "Point", "coordinates": [33.63934, 34.924167]}}, {"type": "Feature", "properties": {"scalerank": 5, "featurecla": "Port", "name": "Limassol", "website": "www.cpa.gov.cy", "natlscale": 30, "ne_id": 1730089105}, "bbox": [33.017727, 34.65, 33.017727, 34.65], "geometry": {"type": "Point", "coordinates": [33.017727, 34.65]}}, {"type": "Feature", "properties": {"scalerank": 5, "featurecla": "Port", "name": "Djibouti", "website": "www.dpworld-djiboutiport.com", "natlscale": 30, "ne_id": 1730089113}, "bbox": [43.13563, 11.601944, 43.13563, 11.601944], "geometry": {"type": "Point", "coordinates": [43.13563, 11.601944]}}, {"type": "Feature", "properties": {"scalerank": 5, "featurecla": "Port", "name": "Bhavnagar", "website": "www.gmbports.org", "natlscale": 30, "ne_id": 1730089187}, "bbox": [72.206007, 21.77, 72.206007, 21.77], "geometry": {"type": "Point", "coordinates": [72.206007, 21.77]}}, {"type": "Feature", "properties": {"scalerank": 5, "featurecla": "Port", "name": "Visakhapatnam", "website": "www.vizagport.com", "natlscale": 30, "ne_id": 1730089189}, "bbox": [83.28722, 17.693333, 83.28722, 17.693333], "geometry": {"type": "Point", "coordinates": [83.28722, 17.693333]}}, {"type": "Feature", "properties": {"scalerank": 5, "featurecla": "Port", "name": "Bandar Abbas", "website": null, "natlscale": 30, "ne_id": 1730089193}, "bbox": [56.20424, 27.140833, 56.20424, 27.140833], "geometry": {"type": "Point", "coordinates": [56.20424, 27.140833]}}, {"type": "Feature", "properties": {"scalerank": 5, "featurecla": "Port", "name": "Colombo", "website": "www.slpa.lk", "natlscale": 30, "ne_id": 1730089217}, "bbox": [79.850177, 6.951389, 79.850177, 6.951389], "geometry": {"type": "Point", "coordinates": [79.850177, 6.951389]}}, {"type": "Feature", "properties": {"scalerank": 5, "featurecla": "Port", "name": "Muscat", "website": "www.pscoman.com", "natlscale": 30, "ne_id": 1730089259}, "bbox": [58.409011, 23.606667, 58.409011, 23.606667], "geometry": {"type": "Point", "coordinates": [58.409011, 23.606667]}}, {"type": "Feature", "properties": {"scalerank": 5, "featurecla": "Port", "name": "Doha", "website": null, "natlscale": 30, "ne_id": 1730089277}, "bbox": [51.555654, 25.298056, 51.555654, 25.298056], "geometry": {"type": "Point", "coordinates": [51.555654, 25.298056]}}, {"type": "Feature", "properties": {"scalerank": 5, "featurecla": "Port", "name": "Port Sudan", "website": "www.sudanports.gov.sd", "natlscale": 30, "ne_id": 1730089285}, "bbox": [37.221614, 19.615833, 37.221614, 19.615833], "geometry": {"type": "Point", "coordinates": [37.221614, 19.615833]}}, {"type": "Feature", "properties": {"scalerank": 5, "featurecla": "Port", "name": "Mogadishu", "website": null, "natlscale": 30, "ne_id": 1730089289}, "bbox": [45.340931, 2.028889, 45.340931, 2.028889], "geometry": {"type": "Point", "coordinates": [45.340931, 2.028889]}}, {"type": "Feature", "properties": {"scalerank": 5, "featurecla": "Port", "name": "Hodeidah", "website": null, "natlscale": 30, "ne_id": 1730089343}, "bbox": [42.935277, 14.833611, 42.935277, 14.833611], "geometry": {"type": "Point", "coordinates": [42.935277, 14.833611]}}, {"type": "Feature", "properties": {"scalerank": 4, "featurecla": "Port", "name": "Chittagong", "website": "www.cpa.gov.bd", "natlscale": 50, "ne_id": 1730089371}, "bbox": [91.825854, 22.268889, 91.825854, 22.268889], "geometry": {"type": "Point", "coordinates": [91.825854, 22.268889]}}, {"type": "Feature", "properties": {"scalerank": 4, "featurecla": "Port", "name": "Haifa", "website": "www.haifaport.org.il", "natlscale": 50, "ne_id": 1730089445}, "bbox": [35.018257, 32.8225, 35.018257, 32.8225], "geometry": {"type": "Point", "coordinates": [35.018257, 32.8225]}}, {"type": "Feature", "properties": {"scalerank": 4, "featurecla": "Port", "name": "Mombasa", "website": "www.kpa.co.ke", "natlscale": 50, "ne_id": 1730089457}, "bbox": [39.622144, -4.053056, 39.622144, -4.053056], "geometry": {"type": "Point", "coordinates": [39.622144, -4.053056]}}, {"type": "Feature", "properties": {"scalerank": 4, "featurecla": "Port", "name": "Beirut", "website": "www.portdebeyrouth.com", "natlscale": 50, "ne_id": 1730089461}, "bbox": [35.519494, 33.905, 35.519494, 33.905], "geometry": {"type": "Point", "coordinates": [35.519494, 33.905]}}, {"type": "Feature", "properties": {"scalerank": 4, "featurecla": "Port", "name": "Male", "website": "www.maldport.com.mv", "natlscale": 50, "ne_id": 1730089463}, "bbox": [73.507067, 4.175, 73.507067, 4.175], "geometry": {"type": "Point", "coordinates": [73.507067, 4.175]}}, {"type": "Feature", "properties": {"scalerank": 4, "featurecla": "Port", "name": "Yangon", "website": "www.mot.gov.mm/mpa/index.html", "natlscale": 50, "ne_id": 1730089469}, "bbox": [96.168787, 16.765833, 96.168787, 16.765833], "geometry": {"type": "Point", "coordinates": [96.168787, 16.765833]}}, {"type": "Feature", "properties": {"scalerank": 4, "featurecla": "Port", "name": "Jeddah", "website": "www.ports.gov.sa", "natlscale": 50, "ne_id": 1730089475}, "bbox": [39.159011, 21.458611, 39.159011, 21.458611], "geometry": {"type": "Point", "coordinates": [39.159011, 21.458611]}}, {"type": "Feature", "properties": {"scalerank": 4, "featurecla": "Port", "name": "Aden", "website": "www.portofaden.com", "natlscale": 50, "ne_id": 1730089509}, "bbox": [44.989694, 12.795556, 44.989694, 12.795556], "geometry": {"type": "Point", "coordinates": [44.989694, 12.795556]}}, {"type": "Feature", "properties": {"scalerank": 3, "featurecla": "Port", "name": "Dubai", "website": "www.dpa.ae", "natlscale": 75, "ne_id": 1730089531}, "bbox": [55.269317, 25.267222, 55.269317, 25.267222], "geometry": {"type": "Point", "coordinates": [55.269317, 25.267222]}}, {"type": "Feature", "properties": {"scalerank": 3, "featurecla": "Port", "name": "Port Said", "website": "www.psdports.org", "natlscale": 75, "ne_id": 1730089573}, "bbox": [32.306007, 31.253333, 32.306007, 31.253333], "geometry": {"type": "Point", "coordinates": [32.306007, 31.253333]}}, {"type": "Feature", "properties": {"scalerank": 3, "featurecla": "Port", "name": "Karachi", "website": "www.kpt.gov.pk", "natlscale": 75, "ne_id": 1730089627}, "bbox": [66.973734, 24.835, 66.973734, 24.835], "geometry": {"type": "Point", "coordinates": [66.973734, 24.835]}}], "bbox": [-171.7579505, -54.80944444, 179.309364, 78.22611111]}